{
  "type": "FeatureCollection",
  "features": [
    {
      "type": "Feature",
      "properties": {
        "norad_id": 66549,
        "name": "SHIJIAN-28 (SJ-28)",
        "group": "last-30-days",
        "lat": -3.1556851359091804,
        "lon": 134.1655244037953,
        "alt_km": 35788.166252468574,
        "timestamp": "2025-12-24T18:55:54.773789+00:00",
        "meta_object_name": "SHIJIAN-28 (SJ-28)",
        "meta_object_id": "2025-277A",
        "meta_epoch": "2025-12-24T05:05:43.641888",
        "meta_mean_motion": 1.00265703,
        "meta_eccentricity": 0.00010168,
        "meta_inclination": 4.9905,
        "meta_ra_of_asc_node": 274.7763,
        "meta_arg_of_pericenter": 130.9499,
        "meta_mean_anomaly": 240.4452,
        "meta_ephemeris_type": 0,
        "meta_classification_type": "U",
        "meta_norad_cat_id": 66549,
        "meta_element_set_no": 999,
        "meta_rev_at_epoch": 40,
        "meta_bstar": 0,
        "meta_mean_motion_dot": -3.37e-06,
        "meta_mean_motion_ddot": 0,
        "tle_line1": "1 66549U 25277A   25358.21231067 -.00000337  00000+0  00000+0 0  9990",
        "tle_line2": "2 66549   4.9905 274.7763 0001016 130.9499 240.4452  1.00265703   407"
      },
      "geometry": {
        "type": "Point",
        "coordinates": [
          134.1655244037953,
          -3.1556851359091804
        ]
      }
    },
    {
      "type": "Feature",
      "properties": {
        "norad_id": 66550,
        "name": "CZ-7A R/B",
        "group": "last-30-days",
        "lat": 8.35178393158575,
        "lon": -62.088475086351444,
        "alt_km": 21442.61223400756,
        "timestamp": "2025-12-24T18:55:54.773843+00:00",
        "meta_object_name": "CZ-7A R/B",
        "meta_object_id": "2025-277B",
        "meta_epoch": "2025-12-23T05:53:12.433056",
        "meta_mean_motion": 3.27661077,
        "meta_eccentricity": 0.66094342,
        "meta_inclination": 14.3426,
        "meta_ra_of_asc_node": 263.9223,
        "meta_arg_of_pericenter": 200.4471,
        "meta_mean_anomaly": 110.5172,
        "meta_ephemeris_type": 0,
        "meta_classification_type": "U",
        "meta_norad_cat_id": 66550,
        "meta_element_set_no": 999,
        "meta_rev_at_epoch": 65,
        "meta_bstar": 0.0068493476,
        "meta_mean_motion_dot": 0.10979967,
        "meta_mean_motion_ddot": 1.8894821e-05,
        "tle_line1": "1 66550U 25277B   25357.24528279  .10979967  18895-4  68493-2 0  9991",
        "tle_line2": "2 66550  14.3426 263.9223 6609434 200.4471 110.5172  3.27661077   658"
      },
      "geometry": {
        "type": "Point",
        "coordinates": [
          -62.088475086351444,
          8.35178393158575
        ]
      }
    },
    {
      "type": "Feature",
      "properties": {
        "norad_id": 66554,
        "name": "GLOBAL-33",
        "group": "last-30-days",
        "lat": -13.104038488020615,
        "lon": -27.55294224075855,
        "alt_km": 474.7980525461544,
        "timestamp": "2025-12-24T18:55:54.773872+00:00",
        "meta_object_name": "GLOBAL-33",
        "meta_object_id": "2025-267A",
        "meta_epoch": "2025-12-24T06:29:55.595040",
        "meta_mean_motion": 15.31725857,
        "meta_eccentricity": 0.00045333,
        "meta_inclination": 42.0213,
        "meta_ra_of_asc_node": 350.4216,
        "meta_arg_of_pericenter": 172.4312,
        "meta_mean_anomaly": 187.6595,
        "meta_ephemeris_type": 0,
        "meta_classification_type": "U",
        "meta_norad_cat_id": 66554,
        "meta_element_set_no": 999,
        "meta_rev_at_epoch": 517,
        "meta_bstar": 0.00048053966,
        "meta_mean_motion_dot": 0.00014821,
        "meta_mean_motion_ddot": 0,
        "tle_line1": "1 66554U 25267A   25358.27078235  .00014821  00000+0  48054-3 0  9994",
        "tle_line2": "2 66554  42.0213 350.4216 0004533 172.4312 187.6595 15.31725857  5174"
      },
      "geometry": {
        "type": "Point",
        "coordinates": [
          -27.55294224075855,
          -13.104038488020615
        ]
      }
    },
    {
      "type": "Feature",
      "properties": {
        "norad_id": 66557,
        "name": "STARLINK-35699",
        "group": "last-30-days",
        "lat": 28.44209105099484,
        "lon": -164.8445396631364,
        "alt_km": 436.49403508912565,
        "timestamp": "2025-12-24T18:55:54.773886+00:00",
        "meta_object_name": "STARLINK-35699",
        "meta_object_id": "2025-268A",
        "meta_epoch": "2025-12-24T08:00:03.000384",
        "meta_mean_motion": 15.44134726,
        "meta_eccentricity": 0.00015636,
        "meta_inclination": 43,
        "meta_ra_of_asc_node": 53.3294,
        "meta_arg_of_pericenter": 287.9037,
        "meta_mean_anomaly": 194.5252,
        "meta_ephemeris_type": 0,
        "meta_classification_type": "U",
        "meta_norad_cat_id": 66557,
        "meta_element_set_no": 999,
        "meta_rev_at_epoch": 603,
        "meta_bstar": -0.048500144,
        "meta_mean_motion_dot": -0.02024188,
        "meta_mean_motion_ddot": 0,
        "tle_line1": "1 66557U 25268A   25358.33336806 -.02024188  00000+0 -48500-1 0  9991",
        "tle_line2": "2 66557  43.0000  53.3294 0001563 287.9037 194.5252 15.44134726  6039"
      },
      "geometry": {
        "type": "Point",
        "coordinates": [
          -164.8445396631364,
          28.44209105099484
        ]
      }
    },
    {
      "type": "Feature",
      "properties": {
        "norad_id": 66558,
        "name": "STARLINK-35695",
        "group": "last-30-days",
        "lat": 21.846795939613017,
        "lon": -154.814705474588,
        "alt_km": 434.8688352544641,
        "timestamp": "2025-12-24T18:55:54.773898+00:00",
        "meta_object_name": "STARLINK-35695",
        "meta_object_id": "2025-268B",
        "meta_epoch": "2025-12-24T08:00:03.000384",
        "meta_mean_motion": 15.44997437,
        "meta_eccentricity": 0.00013981,
        "meta_inclination": 43.0003,
        "meta_ra_of_asc_node": 53.3059,
        "meta_arg_of_pericenter": 285.7926,
        "meta_mean_anomaly": 206.4706,
        "meta_ephemeris_type": 0,
        "meta_classification_type": "U",
        "meta_norad_cat_id": 66558,
        "meta_element_set_no": 999,
        "meta_rev_at_epoch": 603,
        "meta_bstar": -0.047881567,
        "meta_mean_motion_dot": -0.02054685,
        "meta_mean_motion_ddot": 0,
        "tle_line1": "1 66558U 25268B   25358.33336806 -.02054685  00000+0 -47882-1 0  9999",
        "tle_line2": "2 66558  43.0003  53.3059 0001398 285.7926 206.4706 15.44997437  6034"
      },
      "geometry": {
        "type": "Point",
        "coordinates": [
          -154.814705474588,
          21.846795939613017
        ]
      }
    },
    {
      "type": "Feature",
      "properties": {
        "norad_id": 66559,
        "name": "STARLINK-35419",
        "group": "last-30-days",
        "lat": -9.257806432707017,
        "lon": -119.37112621845358,
        "alt_km": 423.2539886848417,
        "timestamp": "2025-12-24T18:55:54.773910+00:00",
        "meta_object_name": "STARLINK-35419",
        "meta_object_id": "2025-268C",
        "meta_epoch": "2025-12-24T08:00:03.000384",
        "meta_mean_motion": 15.50131709,
        "meta_eccentricity": 9.682e-05,
        "meta_inclination": 43.0001,
        "meta_ra_of_asc_node": 53.2135,
        "meta_arg_of_pericenter": 280.3946,
        "meta_mean_anomaly": 250.1612,
        "meta_ephemeris_type": 0,
        "meta_classification_type": "U",
        "meta_norad_cat_id": 66559,
        "meta_element_set_no": 999,
        "meta_rev_at_epoch": 610,
        "meta_bstar": -0.040449324,
        "meta_mean_motion_dot": -0.02076304,
        "meta_mean_motion_ddot": 0,
        "tle_line1": "1 66559U 25268C   25358.33336806 -.02076304  00000+0 -40449-1 0  9994",
        "tle_line2": "2 66559  43.0001  53.2135 0000968 280.3946 250.1612 15.50131709  6101"
      },
      "geometry": {
        "type": "Point",
        "coordinates": [
          -119.37112621845358,
          -9.257806432707017
        ]
      }
    },
    {
      "type": "Feature",
      "properties": {
        "norad_id": 66560,
        "name": "STARLINK-35411",
        "group": "last-30-days",
        "lat": -12.820504155392044,
        "lon": -115.32287879665357,
        "alt_km": 422.00959200610123,
        "timestamp": "2025-12-24T18:55:54.773946+00:00",
        "meta_object_name": "STARLINK-35411",
        "meta_object_id": "2025-268D",
        "meta_epoch": "2025-12-24T08:00:03.000384",
        "meta_mean_motion": 15.50662195,
        "meta_eccentricity": 9.936e-05,
        "meta_inclination": 43.0004,
        "meta_ra_of_asc_node": 53.2027,
        "meta_arg_of_pericenter": 281.371,
        "meta_mean_anomaly": 253.6594,
        "meta_ephemeris_type": 0,
        "meta_classification_type": "U",
        "meta_norad_cat_id": 66560,
        "meta_element_set_no": 999,
        "meta_rev_at_epoch": 610,
        "meta_bstar": -0.039677133,
        "meta_mean_motion_dot": -0.02075898,
        "meta_mean_motion_ddot": 0,
        "tle_line1": "1 66560U 25268D   25358.33336806 -.02075898  00000+0 -39677-1 0  9994",
        "tle_line2": "2 66560  43.0004  53.2027 0000993 281.3710 253.6594 15.50662195  6109"
      },
      "geometry": {
        "type": "Point",
        "coordinates": [
          -115.32287879665357,
          -12.820504155392044
        ]
      }
    }
  ]
}